{"type": "FeatureCollection", "features": [ {"type": "Feature", "properties": {"norad_id": 33905, "name": "COSMOS 2251 DEB", "group": "cosmos-2251-debris", "lat": 38.96077422354721, "lon": 108.94754411242002, "alt_km": 744.1557827319502, "timestamp": "2025-12-20T09:36:02.042033+00:00", "meta": {"OBJECT_NAME": "COSMOS 2251 DEB", "OBJECT_ID": "1993-036DJ", "EPOCH": "2025-12-19T21:31:28.125984", "MEAN_MOTION": 14.35409208, "ECCENTRICITY": 0.0058351, "INCLINATION": 73.8873, "RA_OF_ASC_NODE": 303.3964, "ARG_OF_PERICENTER": 191.3924, "MEAN_ANOMALY": 229.076, "EPHEMERIS_TYPE": 0, "CLASSIFICATION_TYPE": "U", "NORAD_CAT_ID": 33905, "ELEMENT_SET_NO": 999, "REV_AT_EPOCH": 87790, "BSTAR": 0.00040218, "MEAN_MOTION_DOT": 1.15e-05, "MEAN_MOTION_DDOT": 0}, "tle": {"line1": "1 33905U 93036DJ  25353.89685331  .00001150  00000+0  40218-3 0  9996", "line2": "2 33905  73.8873 303.3964 0058351 191.3924 229.0760 14.35409208877900"}}, "geometry": {"type": "Point", "coordinates": [108.94754411242002, 38.96077422354721]}}, {"type": "Feature", "properties": {"norad_id": 33906, "name": "COSMOS 2251 DEB", "group": "cosmos-2251-debris", "lat": -72.69171297035608, "lon": -166.31345397655033, "alt_km": 700.9653133530383, "timestamp": "2025-12-20T09:36:02.042044+00:00", "meta": {"OBJECT_NAME": "COSMOS 2251 DEB", "OBJECT_ID": "1993-036DK", "EPOCH": "2025-12-20T00:30:46.324800", "MEAN_MOTION": 14.57204009, "ECCENTRICITY": 0.0036901, "INCLINATION": 74.0303, "RA_OF_ASC_NODE": 307.6351, "ARG_OF_PERICENTER": 335.9983, "MEAN_ANOMALY": 102.0662, "EPHEMERIS_TYPE": 0, "CLASSIFICATION_TYPE": "U", "NORAD_CAT_ID": 33906, "ELEMENT_SET_NO": 999, "REV_AT_EPOCH": 88114, "BSTAR": 0.0012168, "MEAN_MOTION_DOT": 5.521e-05, "MEAN_MOTION_DDOT": 0}, "tle": {"line1": "1 33906U 93036DK  25354.02136950  .00005521  00000+0  12168-2 0  9999", "line2": "2 33906  74.0303 307.6351 0036901 335.9983 102.0662 14.57204009881145"}}, "geometry": {"type": "Point", "coordinates": [-166.31345397655033, -72.69171297035608]}}, {"type": "Feature", "properties": {"norad_id": 33907, "name": "COSMOS 2251 DEB", "group": "cosmos-2251-debris", "lat": -41.561179313850225, "lon": -145.59208477539622, "alt_km": 865.6969704564344, "timestamp": "2025-12-20T09:36:02.042054+00:00", "meta": {"OBJECT_NAME": "COSMOS 2251 DEB", "OBJECT_ID": "1993-036DL", "EPOCH": "2025-12-19T13:07:44.904000", "MEAN_MOTION": 14.30562848, "ECCENTRICITY": 0.0111929, "INCLINATION": 74.0693, "RA_OF_ASC_NODE": 21.2873, "ARG_OF_PERICENTER": 74.7622, "MEAN_ANOMALY": 77.0442, "EPHEMERIS_TYPE": 0, "CLASSIFICATION_TYPE": "U", "NORAD_CAT_ID": 33907, "ELEMENT_SET_NO": 999, "REV_AT_EPOCH": 86677, "BSTAR": 0.0011704, "MEAN_MOTION_DOT": 3.245e-05, "MEAN_MOTION_DDOT": 0}, "tle": {"line1": "1 33907U 93036DL  25353.54704750  .00003245  00000+0  11704-2 0  9991", "line2": "2 33907  74.0693  21.2873 0111929  74.7622  77.0442 14.30562848866776"}}, "geometry": {"type": "Point", "coordinates": [-145.59208477539622, -41.561179313850225]}}, {"type": "Feature", "properties": {"norad_id": 33908, "name": "COSMOS 2251 DEB", "group": "cosmos-2251-debris", "lat": -22.379554500548064, "lon": -174.68551373664033, "alt_km": 957.3161762814443, "timestamp": "2025-12-20T09:36:02.042065+00:00", "meta": {"OBJECT_NAME": "COSMOS 2251 DEB", "OBJECT_ID": "1993-036DM", "EPOCH": "2025-12-19T23:28:43.994208", "MEAN_MOTION": 14.07391514, "ECCENTRICITY": 0.0222513, "INCLINATION": 73.8366, "RA_OF_ASC_NODE": 192.921, "ARG_OF_PERICENTER": 215.088, "MEAN_ANOMALY": 143.5431, "EPHEMERIS_TYPE": 0, "CLASSIFICATION_TYPE": "U", "NORAD_CAT_ID": 33908, "ELEMENT_SET_NO": 999, "REV_AT_EPOCH": 85575, "BSTAR": 0.0013306, "MEAN_MOTION_DOT": 2.778e-05, "MEAN_MOTION_DDOT": 0}, "tle": {"line1": "1 33908U 93036DM  25353.97828697  .00002778  00000+0  13306-2 0  9996", "line2": "2 33908  73.8366 192.9210 0222513 215.0880 143.5431 14.07391514855757"}}, "geometry": {"type": "Point", "coordinates": [-174.68551373664033, -22.379554500548064]}}, {"type": "Feature", "properties": {"norad_id": 33911, "name": "COSMOS 2251 DEB", "group": "cosmos-2251-debris", "lat": 13.989000381036009, "lon": -37.139813155010195, "alt_km": 644.5159580482705, "timestamp": "2025-12-20T09:36:02.042075+00:00", "meta": {"OBJECT_NAME": "COSMOS 2251 DEB", "OBJECT_ID": "1993-036DQ", "EPOCH": "2025-12-19T20:24:03.683232", "MEAN_MOTION": 14.75018116, "ECCENTRICITY": 0.00141038, "INCLINATION": 74.0898, "RA_OF_ASC_NODE": 148.0059, "ARG_OF_PERICENTER": 83.5327, "MEAN_ANOMALY": 42.4147, "EPHEMERIS_TYPE": 0, "CLASSIFICATION_TYPE": "U", "NORAD_CAT_ID": 33911, "ELEMENT_SET_NO": 999, "REV_AT_EPOCH": 88749, "BSTAR": 0.0012973455, "MEAN_MOTION_DOT": 8.725e-05, "MEAN_MOTION_DDOT": 0}, "tle": {"line1": "1 33911U 93036DQ  25353.85004263  .00008725  00000+0  12973-2 0  9999", "line2": "2 33911  74.0898 148.0059 0014103  83.5327  42.4147 14.75018116887491"}}, "geometry": {"type": "Point", "coordinates": [-37.139813155010195, 13.989000381036009]}}, {"type": "Feature", "properties": {"norad_id": 33912, "name": "COSMOS 2251 DEB", "group": "cosmos-2251-debris", "lat": 40.563184416147074, "lon": -18.892449868261092, "alt_km": 719.4091555292907, "timestamp": "2025-12-20T09:36:02.042085+00:00", "meta": {"OBJECT_NAME": "COSMOS 2251 DEB", "OBJECT_ID": "1993-036DR", "EPOCH": "2025-12-19T23:47:38.750208", "MEAN_MOTION": 14.51932021, "ECCENTRICITY": 0.0011348, "INCLINATION": 74.0324, "RA_OF_ASC_NODE": 176.0641, "ARG_OF_PERICENTER": 254.9369, "MEAN_ANOMALY": 267.6564, "EPHEMERIS_TYPE": 0, "CLASSIFICATION_TYPE": "U", "NORAD_CAT_ID": 33912, "ELEMENT_SET_NO": 999, "REV_AT_EPOCH": 88538, "BSTAR": 0.0005026, "MEAN_MOTION_DOT": 2.002e-05, "MEAN_MOTION_DDOT": 0}, "tle": {"line1": "1 33912U 93036DR  25353.99142072  .00002002  00000+0  50260-3 0  9990", "line2": "2 33912  74.0324 176.0641 0011348 254.9369 267.6564 14.51932021885386"}}, "geometry": {"type": "Point", "coordinates": [-18.892449868261092, 40.563184416147074]}}, {"type": "Feature", "properties": {"norad_id": 33913, "name": "COSMOS 2251 DEB", "group": "cosmos-2251-debris", "lat": 48.51936578657642, "lon": -29.603450635592843, "alt_km": 752.592428850392, "timestamp": "2025-12-20T09:36:02.042096+00:00", "meta": {"OBJECT_NAME": "COSMOS 2251 DEB", "OBJECT_ID": "1993-036DS", "EPOCH": "2025-12-19T21:56:17.572128", "MEAN_MOTION": 14.48512408, "ECCENTRICITY": 0.0048168, "INCLINATION": 74.032, "RA_OF_ASC_NODE": 170.203, "ARG_OF_PERICENTER": 271.4359, "MEAN_ANOMALY": 204.7154, "EPHEMERIS_TYPE": 0, "CLASSIFICATION_TYPE": "U", "NORAD_CAT_ID": 33913, "ELEMENT_SET_NO": 999, "REV_AT_EPOCH": 88561, "BSTAR": 0.00038347, "MEAN_MOTION_DOT": 1.432e-05, "MEAN_MOTION_DDOT": 0}, "tle": {"line1": "1 33913U 93036DS  25353.91409227  .00001432  00000+0  38347-3 0  9999", "line2": "2 33913  74.0320 170.2030 0048168 271.4359 204.7154 14.48512408885616"}}, "geometry": {"type": "Point", "coordinates": [-29.603450635592843, 48.51936578657642]}}, {"type": "Feature", "properties": {"norad_id": 33914, "name": "COSMOS 2251 DEB", "group": "cosmos-2251-debris", "lat": 28.942613909184953, "lon": 173.3963266072234, "alt_km": 833.3207453810373, "timestamp": "2025-12-20T09:36:02.042107+00:00", "meta": {"OBJECT_NAME": "COSMOS 2251 DEB", "OBJECT_ID": "1993-036DT", "EPOCH": "2025-12-20T03:58:39.147168", "MEAN_MOTION": 13.71988867, "ECCENTRICITY": 0.0300854, "INCLINATION": 74.0911, "RA_OF_ASC_NODE": 2.8566, "ARG_OF_PERICENTER": 104.0918, "MEAN_ANOMALY": 326.3891, "EPHEMERIS_TYPE": 0, "CLASSIFICATION_TYPE": "U", "NORAD_CAT_ID": 33914, "ELEMENT_SET_NO": 999, "REV_AT_EPOCH": 84183, "BSTAR": 0.00018294, "MEAN_MOTION_DOT": 2.1e-06, "MEAN_MOTION_DDOT": 0}, "tle": {"line1": "1 33914U 93036DT  25354.16573087  .00000210  00000+0  18294-3 0  9996", "line2": "2 33914  74.0911   2.8566 0300854 104.0918 326.3891 13.71988867841838"}}, "geometry": {"type": "Point", "coordinates": [173.3963266072234, 28.942613909184953]}}, {"type": "Feature", "properties": {"norad_id": 33915, "name": "COSMOS 2251 DEB", "group": "cosmos-2251-debris", "lat": -27.559561757528567, "lon": -151.34411312748227, "alt_km": 789.8865987211393, "timestamp": "2025-12-20T09:36:02.042123+00:00", "meta": {"OBJECT_NAME": "COSMOS 2251 DEB", "OBJECT_ID": "1993-036DU", "EPOCH": "2025-12-20T03:54:47.175264", "MEAN_MOTION": 14.35098178, "ECCENTRICITY": 0.0104107, "INCLINATION": 74.0432, "RA_OF_ASC_NODE": 20.5025, "ARG_OF_PERICENTER": 111.0527, "MEAN_ANOMALY": 312.6073, "EPHEMERIS_TYPE": 0, "CLASSIFICATION_TYPE": "U", "NORAD_CAT_ID": 33915, "ELEMENT_SET_NO": 999, "REV_AT_EPOCH": 87864, "BSTAR": 0.00023546, "MEAN_MOTION_DOT": 6.88e-06, "MEAN_MOTION_DDOT": 0}, "tle": {"line1": "1 33915U 93036DU  25354.16304601  .00000688  00000+0  23546-3 0  9996", "line2": "2 33915  74.0432  20.5025 0104107 111.0527 312.6073 14.35098178878648"}}, "geometry": {"type": "Point", "coordinates": [-151.34411312748227, -27.559561757528567]}}, {"type": "Feature", "properties": {"norad_id": 33916, "name": "COSMOS 2251 DEB", "group": "cosmos-2251-debris", "lat": -35.05122720912115, "lon": 16.430417804152185, "alt_km": 1142.338345534151, "timestamp": "2025-12-20T09:36:02.042133+00:00", "meta": {"OBJECT_NAME": "COSMOS 2251 DEB", "OBJECT_ID": "1993-036DV", "EPOCH": "2025-12-20T03:07:16.337280", "MEAN_MOTION": 13.68621439, "ECCENTRICITY": 0.0325011, "INCLINATION": 74.0522, "RA_OF_ASC_NODE": 28.4455, "ARG_OF_PERICENTER": 199.0158, "MEAN_ANOMALY": 231.637, "EPHEMERIS_TYPE": 0, "CLASSIFICATION_TYPE": "U", "NORAD_CAT_ID": 33916, "ELEMENT_SET_NO": 999, "REV_AT_EPOCH": 83992, "BSTAR": 0.00025229, "MEAN_MOTION_DOT": 2.91e-06, "MEAN_MOTION_DDOT": 0}, "tle": {"line1": "1 33916U 93036DV  25354.13005020  .00000291  00000+0  25229-3 0  9997", "line2": "2 33916  74.0522  28.4455 0325011 199.0158 231.6370 13.68621439839923"}}, "geometry": {"type": "Point", "coordinates": [16.430417804152185, -35.05122720912115]}}]}